{
  "type": "FeatureCollection",
  "features": [
    {
      "type": "Feature",
      "properties": {
        "norad_id": 30315,
        "name": "FENGYUN 1C DEB",
        "group": "fengyun-1c-debris",
        "lat": 47.22709096738266,
        "lon": -167.81964933687377,
        "alt_km": 846.2477521299606,
        "timestamp": "2025-12-19T10:50:01.476557+00:00",
        "meta_object_name": "FENGYUN 1C DEB",
        "meta_object_id": "1999-025AAC",
        "meta_epoch": "2025-12-18T22:41:01.761792",
        "meta_mean_motion": 14.19073334,
        "meta_eccentricity": 0.00348732,
        "meta_inclination": 98.6015,
        "meta_ra_of_asc_node": 2.2727,
        "meta_arg_of_pericenter": 342.3768,
        "meta_mean_anomaly": 84.6353,
        "meta_ephemeris_type": 0,
        "meta_classification_type": "U",
        "meta_norad_cat_id": 30315,
        "meta_element_set_no": 999,
        "meta_rev_at_epoch": 97795,
        "meta_bstar": 0.00028214068,
        "meta_mean_motion_dot": 5.5e-06,
        "meta_mean_motion_ddot": 0,
        "tle_line1": "1 30315U 99025AAC 25352.94515928  .00000550  00000+0  28214-3 0  9996",
        "tle_line2": "2 30315  98.6015   2.2727 0034873 342.3768  84.6353 14.19073334977952"
      },
      "geometry": {
        "type": "Point",
        "coordinates": [
          -167.81964933687377,
          47.22709096738266
        ]
      }
    },
    {
      "type": "Feature",
      "properties": {
        "norad_id": 30316,
        "name": "FENGYUN 1C DEB",
        "group": "fengyun-1c-debris",
        "lat": -1.1443618468652785,
        "lon": 96.28275428371025,
        "alt_km": 685.0672587789586,
        "timestamp": "2025-12-19T10:50:01.476568+00:00",
        "meta_object_name": "FENGYUN 1C DEB",
        "meta_object_id": "1999-025AAD",
        "meta_epoch": "2025-12-18T19:59:49.225632",
        "meta_mean_motion": 14.56169329,
        "meta_eccentricity": 0.00354026,
        "meta_inclination": 98.6482,
        "meta_ra_of_asc_node": 95.468,
        "meta_arg_of_pericenter": 20.7871,
        "meta_mean_anomaly": 339.4756,
        "meta_ephemeris_type": 0,
        "meta_classification_type": "U",
        "meta_norad_cat_id": 30316,
        "meta_element_set_no": 999,
        "meta_rev_at_epoch": 98425,
        "meta_bstar": 0.001553247,
        "meta_mean_motion_dot": 6.872e-05,
        "meta_mean_motion_ddot": 0,
        "tle_line1": "1 30316U 99025AAD 25352.83320863  .00006872  00000+0  15532-2 0  9998",
        "tle_line2": "2 30316  98.6482  95.4680 0035402  20.7871 339.4756 14.56169329984254"
      },
      "geometry": {
        "type": "Point",
        "coordinates": [
          96.28275428371025,
          -1.1443618468652785
        ]
      }
    },
    {
      "type": "Feature",
      "properties": {
        "norad_id": 30317,
        "name": "FENGYUN 1C DEB",
        "group": "fengyun-1c-debris",
        "lat": -11.115774056381618,
        "lon": 171.99194798567183,
        "alt_km": 866.9033722068407,
        "timestamp": "2025-12-19T10:50:01.476578+00:00",
        "meta_object_name": "FENGYUN 1C DEB",
        "meta_object_id": "1999-025AAE",
        "meta_epoch": "2025-12-18T11:44:15.836352",
        "meta_mean_motion": 14.06951711,
        "meta_eccentricity": 0.002411,
        "meta_inclination": 98.7865,
        "meta_ra_of_asc_node": 352.7984,
        "meta_arg_of_pericenter": 259.8506,
        "meta_mean_anomaly": 99.9944,
        "meta_ephemeris_type": 0,
        "meta_classification_type": "U",
        "meta_norad_cat_id": 30317,
        "meta_element_set_no": 999,
        "meta_rev_at_epoch": 97094,
        "meta_bstar": 0.00014484831,
        "meta_mean_motion_dot": 1.99e-06,
        "meta_mean_motion_ddot": 0,
        "tle_line1": "1 30317U 99025AAE 25352.48907218  .00000199  00000+0  14485-3 0  9998",
        "tle_line2": "2 30317  98.7865 352.7984 0024110 259.8506  99.9944 14.06951711970948"
      },
      "geometry": {
        "type": "Point",
        "coordinates": [
          171.99194798567183,
          -11.115774056381618
        ]
      }
    },
    {
      "type": "Feature",
      "properties": {
        "norad_id": 30320,
        "name": "FENGYUN 1C DEB",
        "group": "fengyun-1c-debris",
        "lat": 66.68204458546796,
        "lon": 30.70956237467968,
        "alt_km": 946.9855718068375,
        "timestamp": "2025-12-19T10:50:01.476588+00:00",
        "meta_object_name": "FENGYUN 1C DEB",
        "meta_object_id": "1999-025AAH",
        "meta_epoch": "2025-12-18T10:32:55.718592",
        "meta_mean_motion": 13.98557653,
        "meta_eccentricity": 0.00850072,
        "meta_inclination": 99.1869,
        "meta_ra_of_asc_node": 51.7479,
        "meta_arg_of_pericenter": 278.8359,
        "meta_mean_anomaly": 97.4167,
        "meta_ephemeris_type": 0,
        "meta_classification_type": "U",
        "meta_norad_cat_id": 30320,
        "meta_element_set_no": 999,
        "meta_rev_at_epoch": 96487,
        "meta_bstar": 0.0001493068,
        "meta_mean_motion_dot": 1.75e-06,
        "meta_mean_motion_ddot": 0,
        "tle_line1": "1 30320U 99025AAH 25352.43953378  .00000175  00000+0  14931-3 0  9995",
        "tle_line2": "2 30320  99.1869  51.7479 0085007 278.8359  97.4167 13.98557653964877"
      },
      "geometry": {
        "type": "Point",
        "coordinates": [
          30.70956237467968,
          66.68204458546796
        ]
      }
    },
    {
      "type": "Feature",
      "properties": {
        "norad_id": 30321,
        "name": "FENGYUN 1C DEB",
        "group": "fengyun-1c-debris",
        "lat": -16.503652172668282,
        "lon": 169.71834417794705,
        "alt_km": 800.8825455037759,
        "timestamp": "2025-12-19T10:50:01.476598+00:00",
        "meta_object_name": "FENGYUN 1C DEB",
        "meta_object_id": "1999-025AAJ",
        "meta_epoch": "2025-12-18T22:19:38.352864",
        "meta_mean_motion": 14.16648312,
        "meta_eccentricity": 0.0060131,
        "meta_inclination": 98.656,
        "meta_ra_of_asc_node": 351.7983,
        "meta_arg_of_pericenter": 218.7996,
        "meta_mean_anomaly": 201.9408,
        "meta_ephemeris_type": 0,
        "meta_classification_type": "U",
        "meta_norad_cat_id": 30321,
        "meta_element_set_no": 999,
        "meta_rev_at_epoch": 97631,
        "meta_bstar": 0.00024510044,
        "meta_mean_motion_dot": 4.55e-06,
        "meta_mean_motion_ddot": 0,
        "tle_line1": "1 30321U 99025AAJ 25352.93030501  .00000455  00000+0  24510-3 0  9990",
        "tle_line2": "2 30321  98.6560 351.7983 0060131 218.7996 201.9408 14.16648312976310"
      },
      "geometry": {
        "type": "Point",
        "coordinates": [
          169.71834417794705,
          -16.503652172668282
        ]
      }
    },
    {
      "type": "Feature",
      "properties": {
        "norad_id": 30322,
        "name": "FENGYUN 1C DEB",
        "group": "fengyun-1c-debris",
        "lat": -44.11933272553154,
        "lon": -141.1035537104029,
        "alt_km": 864.403633099816,
        "timestamp": "2025-12-19T10:50:01.476609+00:00",
        "meta_object_name": "FENGYUN 1C DEB",
        "meta_object_id": "1999-025AAK",
        "meta_epoch": "2025-12-18T02:35:57.164928",
        "meta_mean_motion": 14.06121391,
        "meta_eccentricity": 0.01266516,
        "meta_inclination": 98.3984,
        "meta_ra_of_asc_node": 209.4137,
        "meta_arg_of_pericenter": 237.7957,
        "meta_mean_anomaly": 121.0882,
        "meta_ephemeris_type": 0,
        "meta_classification_type": "U",
        "meta_norad_cat_id": 30322,
        "meta_element_set_no": 999,
        "meta_rev_at_epoch": 96275,
        "meta_bstar": 0.0011961347,
        "meta_mean_motion_dot": 2.073e-05,
        "meta_mean_motion_ddot": 0,
        "tle_line1": "1 30322U 99025AAK 25352.10830052  .00002073  00000+0  11961-2 0  9992",
        "tle_line2": "2 30322  98.3984 209.4137 0126651 237.7957 121.0882 14.06121391962759"
      },
      "geometry": {
        "type": "Point",
        "coordinates": [
          -141.1035537104029,
          -44.11933272553154
        ]
      }
    },
    {
      "type": "Feature",
      "properties": {
        "norad_id": 30325,
        "name": "FENGYUN 1C DEB",
        "group": "fengyun-1c-debris",
        "lat": 55.1674086283543,
        "lon": -0.16546750552741749,
        "alt_km": 868.2703891148103,
        "timestamp": "2025-12-19T10:50:01.476619+00:00",
        "meta_object_name": "FENGYUN 1C DEB",
        "meta_object_id": "1999-025AAL",
        "meta_epoch": "2025-12-18T12:24:48.436992",
        "meta_mean_motion": 14.09106132,
        "meta_eccentricity": 0.00153842,
        "meta_inclination": 98.7324,
        "meta_ra_of_asc_node": 11.6896,
        "meta_arg_of_pericenter": 235.8936,
        "meta_mean_anomaly": 124.0775,
        "meta_ephemeris_type": 0,
        "meta_classification_type": "U",
        "meta_norad_cat_id": 30325,
        "meta_element_set_no": 999,
        "meta_rev_at_epoch": 97097,
        "meta_bstar": 3.4673093e-05,
        "meta_mean_motion_dot": 1.8e-07,
        "meta_mean_motion_ddot": 0,
        "tle_line1": "1 30325U 99025AAL 25352.51722728  .00000018  00000+0  34673-4 0  9994",
        "tle_line2": "2 30325  98.7324  11.6896 0015384 235.8936 124.0775 14.09106132970971"
      },
      "geometry": {
        "type": "Point",
        "coordinates": [
          -0.16546750552741749,
          55.1674086283543
        ]
      }
    }
  ]
}